FLOCK 4Q-36             
1 58274U 23174U   26095.75404976  .00044449  00000+0  70877-3 0  9993
2 58274  97.3853 185.7793 0006576  55.6460 304.5414 15.53085570134573
FLOCK 4Q-12             
1 58275U 23174V   26095.71896352  .00124723  00000+0  16790-2 0  9990
2 58275  97.3846 185.7329 0002744  46.7637 313.3847 15.57424544134593
FLOCK 4Q-28             
1 58280U 23174AA  26095.81122307  .00037264  00000+0  64186-3 0  9995
2 58280  97.3878 184.8735 0005574  63.2334 296.9487 15.50965821134516
FLOCK 4Q-27             
1 58282U 23174AC  26095.74331027  .00031308  00000+0  54167-3 0  9991
2 58282  97.3817 184.3189 0005287  62.2922 297.8865 15.50876606134514
FLOCK 4Q-26             
1 58284U 23174AE  26095.81358421  .00038270  00000+0  61587-3 0  9997
2 58284  97.3872 185.9240 0006251  60.9662 299.2217 15.52863266134584
FLOCK 4Q-31             
1 58285U 23174AF  26095.72134302  .00048320  00000+0  78083-3 0  9994
2 58285  97.3913 185.4742 0006317  63.1782 297.0116 15.52697933134528
FLOCK 4Q-30             
1 58286U 23174AG  26095.77003178  .00044405  00000+0  71271-3 0  9998
2 58286  97.3924 185.7204 0004964  65.2853 294.8916 15.52914046134547
PELICAN-1               
1 58296U 23174AS  26095.20084282  .00169203  00000+0  17266-2 0  9999
2 58296  97.4004 191.2079 0009047 220.1647 139.8944 15.64484982134701
FLOCK 4Q-29             
1 58304U 23174BA  26095.75605767  .00037445  00000+0  63251-3 0  9994
2 58304  97.3925 185.2422 0005611  56.2550 303.9236 15.51515119134511
FLOCK 4Q-22             
1 58306U 23174BC  26095.79588476  .00048235  00000+0  72880-3 0  9994
2 58306  97.3812 185.5482 0004409  55.9029 304.2643 15.54571172134608
FLOCK 4Q-23             
1 58307U 23174BD  26095.75921614  .00047565  00000+0  63371-3 0  9996
2 58307  97.3930 187.2560 0005042  50.2773 309.8927 15.57986944134644
FLOCK 4Q-33             
1 58308U 23174BE  26095.80014485  .00041089  00000+0  64836-3 0  9994
2 58308  97.3857 185.4586 0005834  44.6141 315.5581 15.53398237134587
FLOCK 4Q-35             
1 58309U 23174BF  26095.80584936  .00039017  00000+0  63990-3 0  9996
2 58309  97.3881 185.5930 0005592  58.3775 301.8022 15.52334818134565
FLOCK 4Q-7              
1 58318U 23174BQ  26095.73019813  .00039308  00000+0  66944-3 0  9990
2 58318  97.3904 185.0105 0006112  48.0639 312.1133 15.51271687134509
FLOCK 4Q-2              
1 58320U 23174BS  26095.86511522  .00028388  00000+0  57045-3 0  9999
2 58320  97.3830 182.7643 0006384  52.8965 307.2867 15.46590757134412
FLOCK 4Q-9              
1 58322U 23174BU  26095.76021743  .00031202  00000+0  63210-3 0  9991
2 58322  97.3872 182.7012 0006438  55.1274 305.0579 15.46334854134385
FLOCK 4Q-4              
1 58327U 23174BZ  26095.77052993  .00028619  00000+0  59226-3 0  9998
2 58327  97.3825 182.0483 0006898  73.4950 286.7056 15.45724168134360
