[{"OBJECT_NAME":"FLOCK 4Q-36","OBJECT_ID":"2023-174U","EPOCH":"2026-04-05T18:05:49.899264","MEAN_MOTION":15.5308557,"ECCENTRICITY":0.0006576,"INCLINATION":97.3853,"RA_OF_ASC_NODE":185.7793,"ARG_OF_PERICENTER":55.646,"MEAN_ANOMALY":304.5414,"EPHEMERIS_TYPE":0,"CLASSIFICATION_TYPE":"U","NORAD_CAT_ID":58274,"ELEMENT_SET_NO":999,"REV_AT_EPOCH":13457,"BSTAR":0.00070877,"MEAN_MOTION_DOT":0.00044449,"MEAN_MOTION_DDOT":0},{"OBJECT_NAME":"FLOCK 4Q-12","OBJECT_ID":"2023-174V","EPOCH":"2026-04-05T17:15:18.448128","MEAN_MOTION":15.57424544,"ECCENTRICITY":0.0002744,"INCLINATION":97.3846,"RA_OF_ASC_NODE":185.7329,"ARG_OF_PERICENTER":46.7637,"MEAN_ANOMALY":313.3847,"EPHEMERIS_TYPE":0,"CLASSIFICATION_TYPE":"U","NORAD_CAT_ID":58275,"ELEMENT_SET_NO":999,"REV_AT_EPOCH":13459,"BSTAR":0.001679,"MEAN_MOTION_DOT":0.00124723,"MEAN_MOTION_DDOT":0},{"OBJECT_NAME":"FLOCK 4Q-28","OBJECT_ID":"2023-174AA","EPOCH":"2026-04-05T19:28:09.673248","MEAN_MOTION":15.50965821,"ECCENTRICITY":0.0005574,"INCLINATION":97.3878,"RA_OF_ASC_NODE":184.8735,"ARG_OF_PERICENTER":63.2334,"MEAN_ANOMALY":296.9487,"EPHEMERIS_TYPE":0,"CLASSIFICATION_TYPE":"U","NORAD_CAT_ID":58280,"ELEMENT_SET_NO":999,"REV_AT_EPOCH":13451,"BSTAR":0.00064186,"MEAN_MOTION_DOT":0.00037264,"MEAN_MOTION_DDOT":0},{"OBJECT_NAME":"FLOCK 4Q-27","OBJECT_ID":"2023-174AC","EPOCH":"2026-04-05T17:50:22.007328","MEAN_MOTION":15.50876606,"ECCENTRICITY":0.0005287,"INCLINATION":97.3817,"RA_OF_ASC_NODE":184.3189,"ARG_OF_PERICENTER":62.2922,"MEAN_ANOMALY":297.8865,"EPHEMERIS_TYPE":0,"CLASSIFICATION_TYPE":"U","NORAD_CAT_ID":58282,"ELEMENT_SET_NO":999,"REV_AT_EPOCH":13451,"BSTAR":0.00054167,"MEAN_MOTION_DOT":0.00031308,"MEAN_MOTION_DDOT":0},{"OBJECT_NAME":"FLOCK 4Q-26","OBJECT_ID":"2023-174AE","EPOCH":"2026-04-05T19:31:33.675744","MEAN_MOTION":15.52863266,"ECCENTRICITY":0.0006251,"INCLINATION":97.3872,"RA_OF_ASC_NODE":185.924,"ARG_OF_PERICENTER":60.9662,"MEAN_ANOMALY":299.2217,"EPHEMERIS_TYPE":0,"CLASSIFICATION_TYPE":"U","NORAD_CAT_ID":58284,"ELEMENT_SET_NO":999,"REV_AT_EPOCH":13458,"BSTAR":0.00061587,"MEAN_MOTION_DOT":0.0003827,"MEAN_MOTION_DDOT":0},{"OBJECT_NAME":"FLOCK 4Q-31","OBJECT_ID":"2023-174AF","EPOCH":"2026-04-05T17:18:44.036928","MEAN_MOTION":15.52697933,"ECCENTRICITY":0.0006317,"INCLINATION":97.3913,"RA_OF_ASC_NODE":185.4742,"ARG_OF_PERICENTER":63.1782,"MEAN_ANOMALY":297.0116,"EPHEMERIS_TYPE":0,"CLASSIFICATION_TYPE":"U","NORAD_CAT_ID":58285,"ELEMENT_SET_NO":999,"REV_AT_EPOCH":13452,"BSTAR":0.00078083,"MEAN_MOTION_DOT":0.0004832,"MEAN_MOTION_DDOT":0},{"OBJECT_NAME":"FLOCK 4Q-30","OBJECT_ID":"2023-174AG","EPOCH":"2026-04-05T18:28:50.745792","MEAN_MOTION":15.52914046,"ECCENTRICITY":0.0004964,"INCLINATION":97.3924,"RA_OF_ASC_NODE":185.7204,"ARG_OF_PERICENTER":65.2853,"MEAN_ANOMALY":294.8916,"EPHEMERIS_TYPE":0,"CLASSIFICATION_TYPE":"U","NORAD_CAT_ID":58286,"ELEMENT_SET_NO":999,"REV_AT_EPOCH":13454,"BSTAR":0.00071271,"MEAN_MOTION_DOT":0.00044405,"MEAN_MOTION_DDOT":0},{"OBJECT_NAME":"PELICAN-1","OBJECT_ID":"2023-174AS","EPOCH":"2026-04-05T04:49:12.819648","MEAN_MOTION":15.64484982,"ECCENTRICITY":0.00090473,"INCLINATION":97.4004,"RA_OF_ASC_NODE":191.2079,"ARG_OF_PERICENTER":220.1647,"MEAN_ANOMALY":139.8944,"EPHEMERIS_TYPE":0,"CLASSIFICATION_TYPE":"U","NORAD_CAT_ID":58296,"ELEMENT_SET_NO":999,"REV_AT_EPOCH":13470,"BSTAR":0.0017266498,"MEAN_MOTION_DOT":0.00169203,"MEAN_MOTION_DDOT":0},{"OBJECT_NAME":"FLOCK 4Q-29","OBJECT_ID":"2023-174BA","EPOCH":"2026-04-05T18:08:43.382688","MEAN_MOTION":15.51515119,"ECCENTRICITY":0.0005611,"INCLINATION":97.3925,"RA_OF_ASC_NODE":185.2422,"ARG_OF_PERICENTER":56.255,"MEAN_ANOMALY":303.9236,"EPHEMERIS_TYPE":0,"CLASSIFICATION_TYPE":"U","NORAD_CAT_ID":58304,"ELEMENT_SET_NO":999,"REV_AT_EPOCH":13451,"BSTAR":0.00063251,"MEAN_MOTION_DOT":0.00037445,"MEAN_MOTION_DDOT":0},{"OBJECT_NAME":"FLOCK 4Q-22","OBJECT_ID":"2023-174BC","EPOCH":"2026-04-05T19:06:04.443264","MEAN_MOTION":15.54571172,"ECCENTRICITY":0.0004409,"INCLINATION":97.3812,"RA_OF_ASC_NODE":185.5482,"ARG_OF_PERICENTER":55.9029,"MEAN_ANOMALY":304.2643,"EPHEMERIS_TYPE":0,"CLASSIFICATION_TYPE":"U","NORAD_CAT_ID":58306,"ELEMENT_SET_NO":999,"REV_AT_EPOCH":13460,"BSTAR":0.0007288,"MEAN_MOTION_DOT":0.00048235,"MEAN_MOTION_DDOT":0},{"OBJECT_NAME":"FLOCK 4Q-23","OBJECT_ID":"2023-174BD","EPOCH":"2026-04-05T18:13:16.274496","MEAN_MOTION":15.57986944,"ECCENTRICITY":0.0005042,"INCLINATION":97.393,"RA_OF_ASC_NODE":187.256,"ARG_OF_PERICENTER":50.2773,"MEAN_ANOMALY":309.8927,"EPHEMERIS_TYPE":0,"CLASSIFICATION_TYPE":"U","NORAD_CAT_ID":58307,"ELEMENT_SET_NO":999,"REV_AT_EPOCH":13464,"BSTAR":0.00063371,"MEAN_MOTION_DOT":0.00047565,"MEAN_MOTION_DDOT":0},{"OBJECT_NAME":"FLOCK 4Q-33","OBJECT_ID":"2023-174BE","EPOCH":"2026-04-05T19:12:12.515040","MEAN_MOTION":15.53398237,"ECCENTRICITY":0.0005834,"INCLINATION":97.3857,"RA_OF_ASC_NODE":185.4586,"ARG_OF_PERICENTER":44.6141,"MEAN_ANOMALY":315.5581,"EPHEMERIS_TYPE":0,"CLASSIFICATION_TYPE":"U","NORAD_CAT_ID":58308,"ELEMENT_SET_NO":999,"REV_AT_EPOCH":13458,"BSTAR":0.00064836,"MEAN_MOTION_DOT":0.00041089,"MEAN_MOTION_DDOT":0},{"OBJECT_NAME":"FLOCK 4Q-35","OBJECT_ID":"2023-174BF","EPOCH":"2026-04-05T19:20:25.384704","MEAN_MOTION":15.52334818,"ECCENTRICITY":0.0005592,"INCLINATION":97.3881,"RA_OF_ASC_NODE":185.593,"ARG_OF_PERICENTER":58.3775,"MEAN_ANOMALY":301.8022,"EPHEMERIS_TYPE":0,"CLASSIFICATION_TYPE":"U","NORAD_CAT_ID":58309,"ELEMENT_SET_NO":999,"REV_AT_EPOCH":13456,"BSTAR":0.0006399,"MEAN_MOTION_DOT":0.00039017,"MEAN_MOTION_DDOT":0},{"OBJECT_NAME":"FLOCK 4Q-7","OBJECT_ID":"2023-174BQ","EPOCH":"2026-04-05T17:31:29.118432","MEAN_MOTION":15.51271687,"ECCENTRICITY":0.0006112,"INCLINATION":97.3904,"RA_OF_ASC_NODE":185.0105,"ARG_OF_PERICENTER":48.0639,"MEAN_ANOMALY":312.1133,"EPHEMERIS_TYPE":0,"CLASSIFICATION_TYPE":"U","NORAD_CAT_ID":58318,"ELEMENT_SET_NO":999,"REV_AT_EPOCH":13450,"BSTAR":0.00066944,"MEAN_MOTION_DOT":0.00039308,"MEAN_MOTION_DDOT":0},{"OBJECT_NAME":"FLOCK 4Q-2","OBJECT_ID":"2023-174BS","EPOCH":"2026-04-05T20:45:45.955008","MEAN_MOTION":15.46590757,"ECCENTRICITY":0.0006384,"INCLINATION":97.383,"RA_OF_ASC_NODE":182.7643,"ARG_OF_PERICENTER":52.8965,"MEAN_ANOMALY":307.2867,"EPHEMERIS_TYPE":0,"CLASSIFICATION_TYPE":"U","NORAD_CAT_ID":58320,"ELEMENT_SET_NO":999,"REV_AT_EPOCH":13441,"BSTAR":0.00057045,"MEAN_MOTION_DOT":0.00028388,"MEAN_MOTION_DDOT":0},{"OBJECT_NAME":"FLOCK 4Q-9","OBJECT_ID":"2023-174BU","EPOCH":"2026-04-05T18:14:42.785952","MEAN_MOTION":15.46334854,"ECCENTRICITY":0.0006438,"INCLINATION":97.3872,"RA_OF_ASC_NODE":182.7012,"ARG_OF_PERICENTER":55.1274,"MEAN_ANOMALY":305.0579,"EPHEMERIS_TYPE":0,"CLASSIFICATION_TYPE":"U","NORAD_CAT_ID":58322,"ELEMENT_SET_NO":999,"REV_AT_EPOCH":13438,"BSTAR":0.0006321,"MEAN_MOTION_DOT":0.00031202,"MEAN_MOTION_DDOT":0},{"OBJECT_NAME":"FLOCK 4Q-4","OBJECT_ID":"2023-174BZ","EPOCH":"2026-04-05T18:29:33.785952","MEAN_MOTION":15.45724168,"ECCENTRICITY":0.0006898,"INCLINATION":97.3825,"RA_OF_ASC_NODE":182.0483,"ARG_OF_PERICENTER":73.495,"MEAN_ANOMALY":286.7056,"EPHEMERIS_TYPE":0,"CLASSIFICATION_TYPE":"U","NORAD_CAT_ID":58327,"ELEMENT_SET_NO":999,"REV_AT_EPOCH":13436,"BSTAR":0.00059226,"MEAN_MOTION_DOT":0.00028619,"MEAN_MOTION_DDOT":0}]
